{"fetched_at":"2026-03-29T16:36:15Z","count":15609,"tles":[{"name":"STARLINK-5863","line1":"1 55922U 23037J   26087.88878727  .00000471  00000+0  47252-4 0  9991","line2":"2 55922  69.9988 256.0200 0002533 271.9785  88.1084 14.98331615166363","category":"Starlink"}]}